STARLINK-31637          
1 59258U 24050E   26112.99081682 -.00001600  00000+0 -41923-4 0  9996
2 59258  53.1608 335.0538 0001007  57.1684 302.9414 15.30182867117339
STARLINK-31506          
1 59259U 24050F   26112.87600082 -.00000883  00000+0 -17705-4 0  9998
2 59259  53.1611 335.7577 0001190  78.8755 281.2380 15.30193063117315
STARLINK-31639          
1 59261U 24050H   26112.01425150 -.00000415  00000+0 -18918-5 0  9997
2 59261  53.1623 339.6246 0001350  97.2672 262.8482 15.30181612117188
STARLINK-31598          
1 59263U 24050K   26113.04251822 -.00002386  00000+0 -68478-4 0  9990
2 59263  53.1604 335.3554 0001116 105.3791 254.7334 15.30188348117333
STARLINK-31645          
1 59264U 24050L   26113.01718088  .00010704  00000+0  37301-3 0  9991
2 59264  53.1611 335.2122 0001321  95.2313 264.8839 15.30200085117332
STARLINK-31646          
1 59265U 24050M   26112.89286139  .00002461  00000+0  95151-4 0  9993
2 59265  53.1613 335.8570 0001166  85.1116 275.0018 15.30214105117313
STARLINK-31648          
1 59266U 24050N   26113.00029783  .00000083  00000+0  14919-4 0  9999
2 59266  53.1626 335.1090 0001208 110.0926 250.0205 15.30189243117339
STARLINK-31579          
1 59267U 24050P   26113.01401410 -.00000573  00000+0 -72176-5 0  9998
2 59267  53.1621 335.1937 0001403  92.1568 267.9593 15.30195998117335
STARLINK-31627          
1 59268U 24050Q   26112.90554735  .00013569  00000+0  46938-3 0  9997
2 59268  53.1578 335.9355 0001059  81.7049 278.4072 15.30201579117314
STARLINK-31609          
1 59269U 24050R   26113.02035090  .00006591  00000+0  23474-3 0  9997
2 59269  53.1614 335.2322 0001519 104.3646 255.7523 15.30158908117337
STARLINK-31616          
1 59270U 24050S   26113.02667797  .00001239  00000+0  53956-4 0  9997
2 59270  53.1594 335.2714 0001044  89.7851 270.3269 15.30197076117337
STARLINK-31630          
1 59271U 24050T   26112.85222462  .00000823  00000+0  39912-4 0  9998
2 59271  53.1617 322.8169 0001413  85.1079 275.0084 15.30189646117490
STARLINK-31623          
1 59272U 24050U   26112.90965578 -.00001126  00000+0 -25910-4 0  9999
2 59272  53.1597 335.2612 0001061  80.1220 279.9900 15.30198786117328
STARLINK-31595          
1 59273U 24050V   26113.00346411 -.00000223  00000+0  45886-5 0  9992
2 59273  53.1613 335.1418 0001182  91.8779 268.2358 15.30195639117336
STARLINK-31463          
1 59296U 24056A   26113.04529850  .00000959  00000+0  44383-4 0  9992
2 59296  43.0030 336.2657 0001429 274.8827  85.1862 15.27576796117980
STARLINK-31487          
1 59297U 24056B   26112.96800944 -.00000935  00000+0 -24454-4 0  9992
2 59297  43.0035 340.8621 0001640 261.5086  98.5579 15.27571765118045
STARLINK-31386          
1 59298U 24056C   26113.01540037  .00000577  00000+0  30505-4 0  9998
2 59298  43.0091 340.3561 0001937 259.6853 100.3780 15.27580087117935
STARLINK-31409          
1 59299U 24056D   26113.01894391 -.00000807  00000+0 -19798-4 0  9993
2 59299  43.0020 333.4673 0001332 265.8201  94.2499 15.27581556118133
STARLINK-31489          
1 59300U 24056E   26112.93460462 -.00000684  00000+0 -15348-4 0  9994
2 59300  43.0062 340.6111 0001163 286.5499  73.5224 15.27571299117925
STARLINK-31502          
1 59301U 24056F   26112.99325071 -.00001206  00000+0 -34321-4 0  9990
2 59301  43.0028 333.2628 0001294 251.7584 108.3127 15.27563745118010
STARLINK-31447          
1 59302U 24056G   26113.01797879 -.00000701  00000+0 -15975-4 0  9997
2 59302  43.0035 340.3773 0001133 266.8645  93.2077 15.27570567117932
STARLINK-31504          
1 59303U 24056H   26113.02567979 -.00003562  00000+0 -11991-3 0  9996
2 59303  43.0063 340.4340 0002630 254.3034 105.7528 15.27591830117938
STARLINK-31474          
1 59304U 24056J   26112.95869708  .00000729  00000+0  35996-4 0  9995
2 59304  43.0007 333.8694 0001614 273.0823  86.9843 15.27583631118009
STARLINK-31500          
1 59305U 24056K   26113.02182465 -.00002868  00000+0 -94707-4 0  9996
2 59305  43.0053 340.4066 0001408 267.3967  92.6723 15.27590324117933
STARLINK-31480          
1 59306U 24056L   26113.00760354  .00013713  00000+0  50533-3 0  9991
2 59306  43.0085 340.2942 0001970 262.1927  97.8701 15.27683992117930
STARLINK-31282          
1 59307U 24056M   26113.02954194  .00000211  00000+0  17185-4 0  9997
2 59307  43.0036 340.4632 0001314 265.0547  95.0154 15.27577155117932
STARLINK-31485          
1 59308U 24056N   26112.90648157  .00003120  00000+0  12289-3 0  9994
2 59308  43.0025 341.2585 0001864 258.7651 101.2991 15.27566706117919
STARLINK-31455          
1 59309U 24056P   26112.90696530 -.00000811  00000+0 -19953-4 0  9995
2 59309  43.0033 337.8057 0001141 271.4922  88.5799 15.27573913117950
STARLINK-31475          
1 59310U 24056Q   26112.96978354  .00003923  00000+0  15206-3 0  9991
2 59310  43.0009 337.4175 0001228 284.4917  75.5798 15.27572369118080
STARLINK-31445          
1 59312U 24056S   26113.02985002  .00000332  00000+0  21619-4 0  9996
2 59312  43.0083 347.3835 0001954 262.4852  97.5778 15.27578260117859
