OBJECT_NAME,OBJECT_ID,EPOCH,MEAN_MOTION,ECCENTRICITY,INCLINATION,RA_OF_ASC_NODE,ARG_OF_PERICENTER,MEAN_ANOMALY,EPHEMERIS_TYPE,CLASSIFICATION_TYPE,NORAD_CAT_ID,ELEMENT_SET_NO,REV_AT_EPOCH,BSTAR,MEAN_MOTION_DOT,MEAN_MOTION_DDOT
STARLINK-31637,2024-050E,2026-04-22T23:46:46.573248,15.30182867,.00010077,53.1608,335.0538,57.1684,302.9414,0,U,59258,999,11733,-.41922501E-4,-.16E-4,0
STARLINK-31506,2024-050F,2026-04-22T21:01:26.470848,15.30193063,.00011908,53.1611,335.7577,78.8755,281.2380,0,U,59259,999,11731,-.17705096E-4,-.883E-5,0
STARLINK-31639,2024-050H,2026-04-22T00:20:31.329600,15.30181612,.00013506,53.1623,339.6246,97.2672,262.8482,0,U,59261,999,11718,-.1891821E-5,-.415E-5,0
STARLINK-31598,2024-050K,2026-04-23T01:01:13.574208,15.30188348,.00011163,53.1604,335.3554,105.3791,254.7334,0,U,59263,999,11733,-.68477811E-4,-.2386E-4,0
STARLINK-31645,2024-050L,2026-04-23T00:24:44.428032,15.30200085,.00013218,53.1611,335.2122,95.2313,264.8839,0,U,59264,999,11733,.37300655E-3,.10704E-3,0
STARLINK-31646,2024-050M,2026-04-22T21:25:43.224096,15.30214105,.0001166,53.1613,335.8570,85.1116,275.0018,0,U,59265,999,11731,.95151E-4,.2461E-4,0
STARLINK-31648,2024-050N,2026-04-23T00:00:25.732512,15.30189243,.00012086,53.1626,335.1090,110.0926,250.0205,0,U,59266,999,11733,.14919258E-4,.83E-6,0
STARLINK-31579,2024-050P,2026-04-23T00:20:10.818240,15.30195998,.0001403,53.1621,335.1937,92.1568,267.9593,0,U,59267,999,11733,-.7217639E-5,-.573E-5,0
STARLINK-31627,2024-050Q,2026-04-22T21:43:59.291040,15.30201579,.0001059,53.1578,335.9355,81.7049,278.4072,0,U,59268,999,11731,.46938E-3,.13569E-3,0
STARLINK-31609,2024-050R,2026-04-23T00:29:18.317760,15.30158908,.0001519,53.1614,335.2322,104.3646,255.7523,0,U,59269,999,11733,.2347416E-3,.6591E-4,0
STARLINK-31616,2024-050S,2026-04-23T00:38:24.976608,15.30197076,.00010442,53.1594,335.2714,89.7851,270.3269,0,U,59270,999,11733,.53955992E-4,.1239E-4,0
STARLINK-31630,2024-050T,2026-04-22T20:27:12.207168,15.30189646,.00014139,53.1617,322.8169,85.1079,275.0084,0,U,59271,999,11749,.39911622E-4,.823E-5,0
STARLINK-31623,2024-050U,2026-04-22T21:49:54.259392,15.30198786,.0001061,53.1597,335.2612,80.1220,279.9900,0,U,59272,999,11732,-.2591E-4,-.1126E-4,0
STARLINK-31595,2024-050V,2026-04-23T00:04:59.299104,15.30195639,.00011827,53.1613,335.1418,91.8779,268.2358,0,U,59273,999,11733,.4588567E-5,-.223E-5,0
STARLINK-31463,2024-056A,2026-04-23T01:05:13.790400,15.27576796,.00014298,43.0030,336.2657,274.8827,85.1862,0,U,59296,999,11798,.44382888E-4,.959E-5,0
STARLINK-31487,2024-056B,2026-04-22T23:13:56.015616,15.27571765,.00016406,43.0035,340.8621,261.5086,98.5579,0,U,59297,999,11804,-.2445366E-4,-.935E-5,0
STARLINK-31386,2024-056C,2026-04-23T00:22:10.591968,15.27580087,.00019372,43.0091,340.3561,259.6853,100.3780,0,U,59298,999,11793,.30504812E-4,.577E-5,0
STARLINK-31409,2024-056D,2026-04-23T00:27:16.753824,15.27581556,.00013321,43.0020,333.4673,265.8201,94.2499,0,U,59299,999,11813,-.19798433E-4,-.807E-5,0
STARLINK-31489,2024-056E,2026-04-22T22:25:49.839168,15.27571299,.0001163,43.0062,340.6111,286.5499,73.5224,0,U,59300,999,11792,-.15348E-4,-.684E-5,0
STARLINK-31502,2024-056F,2026-04-22T23:50:16.861344,15.27563745,.00012946,43.0028,333.2628,251.7584,108.3127,0,U,59301,999,11801,-.34321077E-4,-.1206E-4,0
STARLINK-31447,2024-056G,2026-04-23T00:25:53.367456,15.27570567,.00011338,43.0035,340.3773,266.8645,93.2077,0,U,59302,999,11793,-.15974978E-4,-.701E-5,0
STARLINK-31504,2024-056H,2026-04-23T00:36:58.733856,15.27591830,.00026303,43.0063,340.4340,254.3034,105.7528,0,U,59303,999,11793,-.11991316E-3,-.3562E-4,0
STARLINK-31474,2024-056J,2026-04-22T23:00:31.427712,15.27583631,.00016149,43.0007,333.8694,273.0823,86.9843,0,U,59304,999,11800,.3599557E-4,.729E-5,0
STARLINK-31500,2024-056K,2026-04-23T00:31:25.649760,15.27590324,.00014087,43.0053,340.4066,267.3967,92.6723,0,U,59305,999,11793,-.94707484E-4,-.2868E-4,0
STARLINK-31480,2024-056L,2026-04-23T00:10:56.945856,15.27683992,.00019708,43.0085,340.2942,262.1927,97.8701,0,U,59306,999,11793,.50532892E-3,.13713E-3,0
STARLINK-31282,2024-056M,2026-04-23T00:42:32.423616,15.27577155,.00013147,43.0036,340.4632,265.0547,95.0154,0,U,59307,999,11793,.17185445E-4,.211E-5,0
STARLINK-31485,2024-056N,2026-04-22T21:45:20.007648,15.27566706,.0001864,43.0025,341.2585,258.7651,101.2991,0,U,59308,999,11791,.12289E-3,.312E-4,0
STARLINK-31455,2024-056P,2026-04-22T21:46:01.801920,15.27573913,.0001141,43.0033,337.8057,271.4922,88.5799,0,U,59309,999,11795,-.19953E-4,-.811E-5,0
STARLINK-31475,2024-056Q,2026-04-22T23:16:29.297856,15.27572369,.00012285,43.0009,337.4175,284.4917,75.5798,0,U,59310,999,11808,.152055E-3,.3923E-4,0
STARLINK-31445,2024-056S,2026-04-23T00:42:59.041728,15.27578260,.00019547,43.0083,347.3835,262.4852,97.5778,0,U,59312,999,11785,.21619102E-4,.332E-5,0
